#aV2007  7 30  0  0   .00000000      96 DD+AD WGS84 FIT  NGA
## 1438  86400.00000000   900.00000000 54311  .0000000000000
+   31     1  2  3  4  5  6  7  8  9 10 11 12 13 14 16 17 18
+         19 20 21 22 23 24 25 26 27 28 29 30 31 32  0  0  0
+          0  0  0  0  0  0  0  0  0  0  0  0  0  0  0  0  0
+          0  0  0  0  0  0  0  0  0  0  0  0  0  0  0  0  0
+          0  0  0  0  0  0  0  0  0  0  0  0  0  0  0  0  0
++         0  0  0  0  0  0  0  0  0  0  0  0  0  0  0  0  0
++         0  0  0  0  0  0  0  0  0  0  0  0  0  0  0  0  0
++         0  0  0  0  0  0  0  0  0  0  0  0  0  0  0  0  0
++         0  0  0  0  0  0  0  0  0  0  0  0  0  0  0  0  0
++         0  0  0  0  0  0  0  0  0  0  0  0  0  0  0  0  0
%c cc cc ccc ccc cccc cccc cccc cccc ccccc ccccc ccccc ccccc
%c cc cc ccc ccc cccc cccc cccc cccc ccccc ccccc ccccc ccccc
%f  0.0000000  0.000000000  0.00000000000  0.000000000000000
%f  0.0000000  0.000000000  0.00000000000  0.000000000000000
%i    0    0    0    0      0      0      0      0         0
%i    0    0    0    0      0      0      0      0         0
/*      NGA, ST. LOUIS,MO.                                  
/*   EPHEMERIS COMPUTED FROM  3 DAYS OF DATA                
/* CCCCCCCCCCCCCCCCCCCCCCCCCCCCCCCCCCCCCCCCCCCCCCCCCCCCCCCCC
/* CCCCCCCCCCCCCCCCCCCCCCCCCCCCCCCCCCCCCCCCCCCCCCCCCCCCCCCCC
*  2007  7 30  2 15   .00000000                                                 
P  1  19910.384514  16015.351577   7581.531605    142.917170                    
V  1  -9014.917574  -2830.891719  30419.347076       .022705                    
P  2 -13221.795530 -17008.854671 -15924.419497    125.254446                    
V  2     51.641721 -19884.450054  21167.513661       .028129                    
P  3  24542.017173  10394.847914  -2442.745155     93.875871                    
V  3  -3848.248163   2468.673908 -30538.321661       .055927                    
P  4  -6692.383968 -24671.356314  -6548.432466      4.382511                    
V  4   2788.582913  -8578.085285  30123.560740      -.018758                    
P  5 -21114.949989  15788.311547   2196.165914    235.851474                    
V  5     51.762590  -4740.538251  31237.756106       .421254                    
P  6 -12136.088219  11407.511582 -20505.669660    241.319211                    
V  6 -24166.351287 -11079.473389   8028.319491       .039947                    
P  7  -9170.359543  13014.671616 -20917.484414    177.558300                    
V  7 -25430.623542 -10386.999460   4559.858572      -.210703                    
P  8    657.645760 -26177.822274  -2703.224634   -116.881701                    
V  8   2742.760767   3213.262719 -32208.170410      -.014878                    
P  9 -14251.174040   4538.641825  21328.555680     80.911391                    
V  9  -4089.539047 -28250.099036   3388.891154       .017219                    
P 10 -17291.110746  -4791.703999 -19802.144375    105.453569                    
V 10  20051.223185 -14574.712829 -13753.634411       .004677                    
P 11  15044.826751  -7439.566240  20447.554736     21.349065                    
V 11   7675.846222  25443.706560   3891.678490       .005814                    
P 12 -23361.142656  10154.882684   7499.761829    -50.999384                    
V 12   6148.601043  -7588.022001  29893.313282      -.012080                    
P 13  11304.051783 -10199.982027 -21864.968533    194.067947                    
V 13  24301.165646  12708.517979   6695.560188       .031303                    
P 14   8753.357697  17505.161181  18080.344668     32.641245                    
V 14 -20861.060092  -8992.390338  18804.092450       .020720                    
P 16  12489.999436   9434.119261 -21399.133424    166.003402                    
V 16 -22289.409950  15809.056865  -5862.315711       .025330                    
P 17  -6560.074711 -17642.237324  18810.863944     59.517587                    
V 17  22129.870447   8875.375903  15925.158401      -.013636                    
P 18 -14362.339134  19036.104585  11463.895739   -242.569966                    
V 18 -13687.778813   5498.525655 -26971.425629       .014151                    
P 19  24293.893763   5606.445176   9443.376556     54.494352                    
V 19   9185.284772   7845.884242 -28463.636174       .028234                    
P 20  22857.591507 -12702.664033   4454.983974    -27.428091                    
V 20  -2882.491847   5893.060864  30902.366791      -.005002                    
P 21  -6666.232848  22860.445988 -10987.714285     78.685290                    
V 21  -4377.910135 -14173.518418 -27088.041248       .000079                    
P 22  -2367.629358  18041.704881  19490.054945    192.553828                    
V 22 -21354.718422  12010.565621 -13864.933014       .015380                    
P 23  20148.392355  -3607.566357 -17126.904228    186.308564                    
V 23  18908.620456  10285.623603  19959.494277       .034558                    
P 24 -12726.643860  13716.002041 -18756.659489     18.937030                    
V 24  -2357.303928 -24086.967080 -15560.317366       .028637                    
P 25   8410.619248 -18578.452743 -16733.041884    387.590277                    
V 25   5844.087366  21174.702963 -19988.355112       .153224                    
P 26 -24762.671274  -8751.238237   5165.314862   -336.202140                    
V 26  -5647.608222  -4386.477048 -31199.567746      -.224127                    
P 27   4028.415000 -23455.876840 -10905.483873    125.683468                    
V 27   4913.497480  14322.722747 -27601.104425       .023027                    
P 28   5639.590808 -18880.293046  17984.529858     -3.930663                    
V 28  19438.913054 -11028.102641 -18356.646819      -.007093                    
P 29 -24679.144072 -10293.851333   1516.154149      4.784517                    
V 29   -838.693188  -2130.075910 -32036.630693       .001798                    
P 30 -18878.095906  18201.938762  -4139.406072     40.941575                    
V 30  -5864.583310    388.805657  30935.356763       .010362                    
P 31   8410.856734  23494.076227  -8798.047238     14.339217                    
V 31  -1496.368012  11658.542064  29132.074202      -.010324                    
P 32   9903.366070  11654.913869  22174.603721    536.215364                    
V 32 -23117.744145  13964.199384   3176.955416       .196879                    
EOF
